CCSDS_OMM_VERS = 2.0
CREATION_DATE  = 
ORIGINATOR     = 

OBJECT_NAME    = STARLINK-35930
OBJECT_ID      = 2025-270M
CENTER_NAME    = EARTH
REF_FRAME      = TEME
TIME_SYSTEM    = UTC
MEAN_ELEMENT_THEORY = SGP/SGP4

EPOCH          = 2025-12-04T00:45:37.693728
MEAN_MOTION    = 15.75348253
ECCENTRICITY   = .00019861
INCLINATION    = 42.9984
RA_OF_ASC_NODE = 244.4479
ARG_OF_PERICENTER = 267.8069
MEAN_ANOMALY   = 92.2573

EPHEMERIS_TYPE = 0
CLASSIFICATION_TYPE = U
NORAD_CAT_ID   = 66599
ELEMENT_SET_NO = 999
REV_AT_EPOCH   = 298
BSTAR          = -.39524111E-2
MEAN_MOTION_DOT = -.575796E-2
MEAN_MOTION_DDOT = 0

CCSDS_OMM_VERS = 2.0
CREATION_DATE  = 
ORIGINATOR     = 

OBJECT_NAME    = STARLINK-35980
OBJECT_ID      = 2025-270N
CENTER_NAME    = EARTH
REF_FRAME      = TEME
TIME_SYSTEM    = UTC
MEAN_ELEMENT_THEORY = SGP/SGP4

EPOCH          = 2025-12-04T03:46:22.938816
MEAN_MOTION    = 15.79349544
ECCENTRICITY   = .00188251
INCLINATION    = 43.0002
RA_OF_ASC_NODE = 243.6684
ARG_OF_PERICENTER = 318.1688
MEAN_ANOMALY   = 41.7743

EPHEMERIS_TYPE = 0
CLASSIFICATION_TYPE = U
NORAD_CAT_ID   = 66600
ELEMENT_SET_NO = 999
REV_AT_EPOCH   = 290
BSTAR          = .25460562E-2
MEAN_MOTION_DOT = .507436E-2
MEAN_MOTION_DDOT = 0

CCSDS_OMM_VERS = 2.0
CREATION_DATE  = 
ORIGINATOR     = 

OBJECT_NAME    = STARLINK-35978
OBJECT_ID      = 2025-270P
CENTER_NAME    = EARTH
REF_FRAME      = TEME
TIME_SYSTEM    = UTC
MEAN_ELEMENT_THEORY = SGP/SGP4

EPOCH          = 2025-12-04T02:15:56.284416
MEAN_MOTION    = 15.75298164
ECCENTRICITY   = .00071106
INCLINATION    = 42.9977
RA_OF_ASC_NODE = 244.0577
ARG_OF_PERICENTER = 214.9985
MEAN_ANOMALY   = 145.0417

EPHEMERIS_TYPE = 0
CLASSIFICATION_TYPE = U
NORAD_CAT_ID   = 66601
ELEMENT_SET_NO = 999
REV_AT_EPOCH   = 283
BSTAR          = -.21837609E-2
MEAN_MOTION_DOT = -.327668E-2
MEAN_MOTION_DDOT = 0

CCSDS_OMM_VERS = 2.0
CREATION_DATE  = 
ORIGINATOR     = 

OBJECT_NAME    = STARLINK-36050
OBJECT_ID      = 2025-270Q
CENTER_NAME    = EARTH
REF_FRAME      = TEME
TIME_SYSTEM    = UTC
MEAN_ELEMENT_THEORY = SGP/SGP4

EPOCH          = 2025-12-03T23:11:57.245856
MEAN_MOTION    = 15.81066635
ECCENTRICITY   = .00264193
INCLINATION    = 42.9973
RA_OF_ASC_NODE = 244.8203
ARG_OF_PERICENTER = 271.6989
MEAN_ANOMALY   = 88.0856

EPHEMERIS_TYPE = 0
CLASSIFICATION_TYPE = U
NORAD_CAT_ID   = 66602
ELEMENT_SET_NO = 999
REV_AT_EPOCH   = 287
BSTAR          = .3628424E-1
MEAN_MOTION_DOT = .9497794E-1
MEAN_MOTION_DDOT = 0

CCSDS_OMM_VERS = 2.0
CREATION_DATE  = 
ORIGINATOR     = 

OBJECT_NAME    = STARLINK-36048
OBJECT_ID      = 2025-270R
CENTER_NAME    = EARTH
REF_FRAME      = TEME
TIME_SYSTEM    = UTC
MEAN_ELEMENT_THEORY = SGP/SGP4

EPOCH          = 2025-12-03T21:40:34.816800
MEAN_MOTION    = 15.77266061
ECCENTRICITY   = .00104068
INCLINATION    = 42.9981
RA_OF_ASC_NODE = 245.2035
ARG_OF_PERICENTER = 263.8687
MEAN_ANOMALY   = 96.0997

EPHEMERIS_TYPE = 0
CLASSIFICATION_TYPE = U
NORAD_CAT_ID   = 66603
ELEMENT_SET_NO = 999
REV_AT_EPOCH   = 286
BSTAR          = .29394154E-2
MEAN_MOTION_DOT = .531136E-2
MEAN_MOTION_DDOT = 0

CCSDS_OMM_VERS = 2.0
CREATION_DATE  = 
ORIGINATOR     = 

OBJECT_NAME    = STARLINK-35977
OBJECT_ID      = 2025-270S
CENTER_NAME    = EARTH
REF_FRAME      = TEME
TIME_SYSTEM    = UTC
MEAN_ELEMENT_THEORY = SGP/SGP4

EPOCH          = 2025-12-03T11:01:46.597440
MEAN_MOTION    = 15.77554299
ECCENTRICITY   = .00039426
INCLINATION    = 42.9996
RA_OF_ASC_NODE = 247.8966
ARG_OF_PERICENTER = 347.7852
MEAN_ANOMALY   = 12.2922

EPHEMERIS_TYPE = 0
CLASSIFICATION_TYPE = U
NORAD_CAT_ID   = 66604
ELEMENT_SET_NO = 999
REV_AT_EPOCH   = 289
BSTAR          = .71417663E-3
MEAN_MOTION_DOT = .123952E-2
MEAN_MOTION_DDOT = 0

CCSDS_OMM_VERS = 2.0
CREATION_DATE  = 
ORIGINATOR     = 

OBJECT_NAME    = STARLINK-36052
OBJECT_ID      = 2025-270T
CENTER_NAME    = EARTH
REF_FRAME      = TEME
TIME_SYSTEM    = UTC
MEAN_ELEMENT_THEORY = SGP/SGP4

EPOCH          = 2025-12-04T05:16:38.719776
MEAN_MOTION    = 15.75289025
ECCENTRICITY   = .000214
INCLINATION    = 42.9979
RA_OF_ASC_NODE = 243.2778
ARG_OF_PERICENTER = 231.8120
MEAN_ANOMALY   = 128.2557

EPHEMERIS_TYPE = 0
CLASSIFICATION_TYPE = U
NORAD_CAT_ID   = 66605
ELEMENT_SET_NO = 999
REV_AT_EPOCH   = 301
BSTAR          = .24289283E-2
MEAN_MOTION_DOT = .394919E-2
MEAN_MOTION_DDOT = 0

CCSDS_OMM_VERS = 2.0
CREATION_DATE  = 
ORIGINATOR     = 

OBJECT_NAME    = STARLINK-36063
OBJECT_ID      = 2025-270U
CENTER_NAME    = EARTH
REF_FRAME      = TEME
TIME_SYSTEM    = UTC
MEAN_ELEMENT_THEORY = SGP/SGP4

EPOCH          = 2025-12-04T02:13:26.401152
MEAN_MOTION    = 15.70932101
ECCENTRICITY   = .0031868
INCLINATION    = 42.9978
RA_OF_ASC_NODE = 244.0430
ARG_OF_PERICENTER = 182.8429
MEAN_ANOMALY   = 177.2262

EPHEMERIS_TYPE = 0
CLASSIFICATION_TYPE = U
NORAD_CAT_ID   = 66606
ELEMENT_SET_NO = 999
REV_AT_EPOCH   = 299
BSTAR          = -.56770882E-1
MEAN_MOTION_DOT = -.6178149E-1
MEAN_MOTION_DDOT = 0

CCSDS_OMM_VERS = 2.0
CREATION_DATE  = 
ORIGINATOR     = 

OBJECT_NAME    = STARLINK-35993
OBJECT_ID      = 2025-270V
CENTER_NAME    = EARTH
REF_FRAME      = TEME
TIME_SYSTEM    = UTC
MEAN_ELEMENT_THEORY = SGP/SGP4

EPOCH          = 2025-12-04T00:42:13.697280
MEAN_MOTION    = 15.75244198
ECCENTRICITY   = .00015476
INCLINATION    = 42.9984
RA_OF_ASC_NODE = 244.4293
ARG_OF_PERICENTER = 280.1184
MEAN_ANOMALY   = 79.9511

EPHEMERIS_TYPE = 0
CLASSIFICATION_TYPE = U
NORAD_CAT_ID   = 66607
ELEMENT_SET_NO = 999
REV_AT_EPOCH   = 288
BSTAR          = -.24272821E-2
MEAN_MOTION_DOT = -.361066E-2
MEAN_MOTION_DDOT = 0

CCSDS_OMM_VERS = 2.0
CREATION_DATE  = 
ORIGINATOR     = 

OBJECT_NAME    = STARLINK-36036
OBJECT_ID      = 2025-270W
CENTER_NAME    = EARTH
REF_FRAME      = TEME
TIME_SYSTEM    = UTC
MEAN_ELEMENT_THEORY = SGP/SGP4

EPOCH          = 2025-12-04T05:15:11.882592
MEAN_MOTION    = 15.75206645
ECCENTRICITY   = .00013364
INCLINATION    = 42.9982
RA_OF_ASC_NODE = 243.2689
ARG_OF_PERICENTER = 286.6159
MEAN_ANOMALY   = 73.4563

EPHEMERIS_TYPE = 0
CLASSIFICATION_TYPE = U
NORAD_CAT_ID   = 66608
ELEMENT_SET_NO = 999
REV_AT_EPOCH   = 285
BSTAR          = .89241727E-3
MEAN_MOTION_DOT = .139923E-2
MEAN_MOTION_DDOT = 0

CCSDS_OMM_VERS = 2.0
CREATION_DATE  = 
ORIGINATOR     = 

OBJECT_NAME    = STARLINK-36034
OBJECT_ID      = 2025-270X
CENTER_NAME    = EARTH
REF_FRAME      = TEME
TIME_SYSTEM    = UTC
MEAN_ELEMENT_THEORY = SGP/SGP4

EPOCH          = 2025-12-04T03:43:23.820384
MEAN_MOTION    = 15.75158177
ECCENTRICITY   = .00020311
INCLINATION    = 42.9993
RA_OF_ASC_NODE = 243.6507
ARG_OF_PERICENTER = 265.9920
MEAN_ANOMALY   = 94.0717

EPHEMERIS_TYPE = 0
CLASSIFICATION_TYPE = U
NORAD_CAT_ID   = 66609
ELEMENT_SET_NO = 999
REV_AT_EPOCH   = 284
BSTAR          = .17231118E-3
MEAN_MOTION_DOT = .26211E-3
MEAN_MOTION_DDOT = 0

CCSDS_OMM_VERS = 2.0
CREATION_DATE  = 
ORIGINATOR     = 

OBJECT_NAME    = STARLINK-35680
OBJECT_ID      = 2025-270Y
CENTER_NAME    = EARTH
REF_FRAME      = TEME
TIME_SYSTEM    = UTC
MEAN_ELEMENT_THEORY = SGP/SGP4

EPOCH          = 2025-12-04T03:42:25.332768
MEAN_MOTION    = 15.75092921
ECCENTRICITY   = .00031224
INCLINATION    = 42.9982
RA_OF_ASC_NODE = 243.6469
ARG_OF_PERICENTER = 250.5406
MEAN_ANOMALY   = 109.5126

EPHEMERIS_TYPE = 0
CLASSIFICATION_TYPE = U
NORAD_CAT_ID   = 66610
ELEMENT_SET_NO = 999
REV_AT_EPOCH   = 311
BSTAR          = .20650963E-2
MEAN_MOTION_DOT = .330274E-2
MEAN_MOTION_DDOT = 0

