STARLINK-35930          
1 66599U 25270M   25338.03168627 -.00575796  00000+0 -39524-2 0  9990
2 66599  42.9984 244.4479 0001986 267.8069  92.2573 15.75348253  2989
STARLINK-35980          
1 66600U 25270N   25338.15720994  .00507436  00000+0  25461-2 0  9996
2 66600  43.0002 243.6684 0018825 318.1688  41.7743 15.79349544  2909
STARLINK-35978          
1 66601U 25270P   25338.09440144 -.00327668  00000+0 -21838-2 0  9999
2 66601  42.9977 244.0577 0007110 214.9985 145.0417 15.75298164  2838
STARLINK-36050          
1 66602U 25270Q   25337.96663479  .09497794  00000+0  36284-1 0  9998
2 66602  42.9973 244.8203 0026419 271.6989  88.0856 15.81066635  2876
STARLINK-36048          
1 66603U 25270R   25337.90318075  .00531136  00000+0  29394-2 0  9997
2 66603  42.9981 245.2035 0010406 263.8687  96.0997 15.77266061  2865
STARLINK-35977          
1 66604U 25270S   25337.45956710  .00123952  00000+0  71418-3 0  9990
2 66604  42.9996 247.8966 0003942 347.7852  12.2922 15.77554299  2890
STARLINK-36052          
1 66605U 25270T   25338.21989259  .00394919  00000+0  24289-2 0  9996
2 66605  42.9979 243.2778 0002140 231.8120 128.2557 15.75289025  3010
STARLINK-36063          
1 66606U 25270U   25338.09266668 -.06178149  00000+0 -56771-1 0  9998
2 66606  42.9978 244.0430 0031868 182.8429 177.2262 15.70932101  2998
STARLINK-35993          
1 66607U 25270V   25338.02932520 -.00361066  00000+0 -24273-2 0  9998
2 66607  42.9984 244.4293 0001547 280.1184  79.9511 15.75244198  2888
STARLINK-36036          
1 66608U 25270W   25338.21888753  .00139923  00000+0  89242-3 0  9999
2 66608  42.9982 243.2689 0001336 286.6159  73.4563 15.75206645  2850
STARLINK-36034          
1 66609U 25270X   25338.15513681  .00026211  00000+0  17231-3 0  9992
2 66609  42.9993 243.6507 0002031 265.9920  94.0717 15.75158177  2840
STARLINK-35680          
1 66610U 25270Y   25338.15445987  .00330274  00000+0  20651-2 0  9993
2 66610  42.9982 243.6469 0003122 250.5406 109.5126 15.75092921  3119
